start=new Date('2023-05-19T00:00:00.000Z').valueOf();
sats=[{"ECCENTRICITY":"0.00011680","COUNTRY_CODE":"US","EPOCH":"2023-05-18T17:39:12.291552","NORAD_CAT_ID":"53427","MEAN_MOTION":"15.08839507","FILE":"3911388","BSTAR":"0.00002248000000","REF_FRAME":"TEME","CENTER_NAME":"EARTH","CLASSIFICATION_TYPE":"U","MEAN_MOTION_DDOT":"0.0000000000000","DECAY_DATE":null,"PERIAPSIS":"538.939","EPHEMERIS_TYPE":"0","SITE":"AFETR","RA_OF_ASC_NODE":"39.8049","PERIOD":"95.438","GP_ID":"232115379","MEAN_ELEMENT_THEORY":"SGP4","TLE_LINE2":"2 53427  53.2177  39.8049 0001168  91.3270 268.7856 15.08839507 43767","TLE_LINE1":"1 53427U 22097AR  23138.73555893  .00000070  00000-0  22480-4 0  9990","LAUNCH_DATE":"2022-08-10","ARG_OF_PERICENTER":"91.3270","APOAPSIS":"540.555","TIME_SYSTEM":"UTC","INCLINATION":"53.2177","ELEMENT_SET_NO":"999","RCS_SIZE":"LARGE","OBJECT_NAME":"STARLINK-4541","SEMIMAJOR_AXIS":"6917.882","OBJECT_TYPE":"PAYLOAD","MEAN_ANOMALY":"268.7856","OBJECT_ID":"2022-097AR","MEAN_MOTION_DOT":"0.00000070","REV_AT_EPOCH":"4376"},{"OBJECT_ID":"2022-097AS","MEAN_ANOMALY":"265.2432","MEAN_MOTION_DOT":"0.00000962","REV_AT_EPOCH":"4389","TIME_SYSTEM":"UTC","INCLINATION":"53.2179","ELEMENT_SET_NO":"999","RCS_SIZE":"LARGE","OBJECT_NAME":"STARLINK-4540","SEMIMAJOR_AXIS":"6917.867","OBJECT_TYPE":"PAYLOAD","EPHEMERIS_TYPE":"0","SITE":"AFETR","RA_OF_ASC_NODE":"30.0279","PERIOD":"95.437","GP_ID":"232115629","MEAN_ELEMENT_THEORY":"SGP4","TLE_LINE2":"2 53428  53.2179  30.0279 0000972  94.8671 265.2432 15.08844519 43898","TLE_LINE1":"1 53428U 22097AS  23138.70336659  .00000962  00000-0  78499-4 0  9996","LAUNCH_DATE":"2022-08-10","ARG_OF_PERICENTER":"94.8671","APOAPSIS":"540.404","ECCENTRICITY":"0.00009720","COUNTRY_CODE":"US","EPOCH":"2023-05-18T16:52:50.873376","NORAD_CAT_ID":"53428","MEAN_MOTION":"15.08844519","FILE":"3911388","REF_FRAME":"TEME","BSTAR":"0.00007849900000","CENTER_NAME":"EARTH","MEAN_MOTION_DDOT":"0.0000000000000","CLASSIFICATION_TYPE":"U","DECAY_DATE":null,"PERIAPSIS":"539.059"},{"PERIAPSIS":"538.834","DECAY_DATE":null,"MEAN_MOTION_DDOT":"0.0000000000000","CLASSIFICATION_TYPE":"U","CENTER_NAME":"EARTH","REF_FRAME":"TEME","BSTAR":"0.00001142300000","FILE":"3911388","MEAN_MOTION":"15.08841908","NORAD_CAT_ID":"53429","EPOCH":"2023-05-18T16:58:09.258240","ECCENTRICITY":"0.00013090","COUNTRY_CODE":"US","APOAPSIS":"540.645","ARG_OF_PERICENTER":"91.2849","LAUNCH_DATE":"2022-08-10","TLE_LINE2":"2 53429  53.2183  30.0490 0001309  91.2849 268.8293 15.08841908 43895","TLE_LINE1":"1 53429U 22097AT  23138.70705160 -.00000106  00000-0  11423-4 0  9999","MEAN_ELEMENT_THEORY":"SGP4","GP_ID":"232115880","PERIOD":"95.437","RA_OF_ASC_NODE":"30.0490","SITE":"AFETR","EPHEMERIS_TYPE":"0","OBJECT_TYPE":"PAYLOAD","SEMIMAJOR_AXIS":"6917.875","OBJECT_NAME":"STARLINK-4543","RCS_SIZE":"LARGE","ELEMENT_SET_NO":"999","INCLINATION":"53.2183","TIME_SYSTEM":"UTC","REV_AT_EPOCH":"4389","MEAN_MOTION_DOT":"-0.00000106","MEAN_ANOMALY":"268.8293","OBJECT_ID":"2022-097AT"},{"REV_AT_EPOCH":"4391","MEAN_ANOMALY":"267.8164","OBJECT_ID":"2022-097AU","MEAN_MOTION_DOT":"0.00002121","RCS_SIZE":"LARGE","OBJECT_NAME":"STARLINK-4538","OBJECT_TYPE":"PAYLOAD","SEMIMAJOR_AXIS":"6917.864","TIME_SYSTEM":"UTC","ELEMENT_SET_NO":"999","INCLINATION":"53.2184","LAUNCH_DATE":"2022-08-10","APOAPSIS":"540.697","ARG_OF_PERICENTER":"92.2988","SITE":"AFETR","EPHEMERIS_TYPE":"0","PERIOD":"95.437","RA_OF_ASC_NODE":"28.8167","MEAN_ELEMENT_THEORY":"SGP4","GP_ID":"232116631","TLE_LINE1":"1 53430U 22097AU  23138.96464325  .00002121  00000-0  15131-3 0  9991","TLE_LINE2":"2 53430  53.2184  28.8167 0001399  92.2988 267.8164 15.08845218 43915","CENTER_NAME":"EARTH","BSTAR":"0.00015131000000","REF_FRAME":"TEME","MEAN_MOTION_DDOT":"0.0000000000000","CLASSIFICATION_TYPE":"U","PERIAPSIS":"538.762","DECAY_DATE":null,"COUNTRY_CODE":"US","ECCENTRICITY":"0.00013990","NORAD_CAT_ID":"53430","EPOCH":"2023-05-18T23:09:05.176800","FILE":"3911388","MEAN_MOTION":"15.08845218"},{"SITE":"AFETR","EPHEMERIS_TYPE":"0","PERIOD":"95.335","RA_OF_ASC_NODE":"28.7644","MEAN_ELEMENT_THEORY":"SGP4","GP_ID":"232114879","TLE_LINE1":"1 53431U 22097AV  23138.95553565 -.00002107  00000-0 -10906-3 0  9997","TLE_LINE2":"2 53431  53.2180  28.7644 0001181  90.5480 269.5648 15.10460760 43934","LAUNCH_DATE":"2022-08-10","APOAPSIS":"535.612","ARG_OF_PERICENTER":"90.5480","ECCENTRICITY":"0.00011810","COUNTRY_CODE":"US","NORAD_CAT_ID":"53431","EPOCH":"2023-05-18T22:55:58.280160","FILE":"3911388","MEAN_MOTION":"15.10460760","CENTER_NAME":"EARTH","BSTAR":"-0.00010906000000","REF_FRAME":"TEME","MEAN_MOTION_DDOT":"0.0000000000000","CLASSIFICATION_TYPE":"U","PERIAPSIS":"533.979","DECAY_DATE":null,"MEAN_ANOMALY":"269.5648","OBJECT_ID":"2022-097AV","MEAN_MOTION_DOT":"-0.00002107","REV_AT_EPOCH":"4393","TIME_SYSTEM":"UTC","ELEMENT_SET_NO":"999","INCLINATION":"53.2180","RCS_SIZE":"LARGE","OBJECT_NAME":"STARLINK-4548","OBJECT_TYPE":"PAYLOAD","SEMIMAJOR_AXIS":"6912.931"},{"OBJECT_NAME":"STARLINK-4557","OBJECT_TYPE":"PAYLOAD","SEMIMAJOR_AXIS":"6917.888","RCS_SIZE":"LARGE","TIME_SYSTEM":"UTC","ELEMENT_SET_NO":"999","INCLINATION":"53.2167","REV_AT_EPOCH":"4391","MEAN_ANOMALY":"267.1996","OBJECT_ID":"2022-097AW","MEAN_MOTION_DOT":"-0.00000049","PERIAPSIS":"538.985","DECAY_DATE":null,"CENTER_NAME":"EARTH","BSTAR":"0.00001502100000","REF_FRAME":"TEME","MEAN_MOTION_DDOT":"0.0000000000000","CLASSIFICATION_TYPE":"U","NORAD_CAT_ID":"53432","EPOCH":"2023-05-18T19:21:10.506240","FILE":"3911388","MEAN_MOTION":"15.08837432","ECCENTRICITY":"0.00011110","COUNTRY_CODE":"US","APOAPSIS":"540.522","ARG_OF_PERICENTER":"92.9124","LAUNCH_DATE":"2022-08-10","MEAN_ELEMENT_THEORY":"SGP4","GP_ID":"232115129","TLE_LINE2":"2 53432  53.2167  29.2500 0001111  92.9124 267.1996 15.08837432 43910","TLE_LINE1":"1 53432U 22097AW  23138.80637160 -.00000049  00000-0  15021-4 0  9992","SITE":"AFETR","EPHEMERIS_TYPE":"0","PERIOD":"95.438","RA_OF_ASC_NODE":"29.2500"},{"APOAPSIS":"540.648","ARG_OF_PERICENTER":"89.6721","LAUNCH_DATE":"2022-08-10","TLE_LINE2":"2 53433  53.2194  28.7909 0001351  89.6721 270.4426 15.08850587 43911","TLE_LINE1":"1 53433U 22097AX  23138.96095698 -.00000207  00000-0  51138-5 0  9990","MEAN_ELEMENT_THEORY":"SGP4","GP_ID":"232116381","PERIOD":"95.437","RA_OF_ASC_NODE":"28.7909","SITE":"AFETR","EPHEMERIS_TYPE":"0","PERIAPSIS":"538.778","DECAY_DATE":null,"MEAN_MOTION_DDOT":"0.0000000000000","CLASSIFICATION_TYPE":"U","CENTER_NAME":"EARTH","BSTAR":"0.00000511380000","REF_FRAME":"TEME","FILE":"3911388","MEAN_MOTION":"15.08850587","NORAD_CAT_ID":"53433","EPOCH":"2023-05-18T23:03:46.683072","COUNTRY_CODE":"US","ECCENTRICITY":"0.00013510","REV_AT_EPOCH":"4391","MEAN_MOTION_DOT":"-0.00000207","MEAN_ANOMALY":"270.4426","OBJECT_ID":"2022-097AX","OBJECT_TYPE":"PAYLOAD","SEMIMAJOR_AXIS":"6917.848","OBJECT_NAME":"STARLINK-4549","RCS_SIZE":"LARGE","ELEMENT_SET_NO":"999","INCLINATION":"53.2194","TIME_SYSTEM":"UTC"},{"OBJECT_TYPE":"PAYLOAD","SEMIMAJOR_AXIS":"6917.883","OBJECT_NAME":"STARLINK-4498","RCS_SIZE":"LARGE","ELEMENT_SET_NO":"999","INCLINATION":"53.2178","TIME_SYSTEM":"UTC","REV_AT_EPOCH":"4392","MEAN_MOTION_DOT":"-0.00000209","MEAN_ANOMALY":"270.3452","OBJECT_ID":"2022-097AY","PERIAPSIS":"539.027","DECAY_DATE":null,"CLASSIFICATION_TYPE":"U","MEAN_MOTION_DDOT":"0.0000000000000","CENTER_NAME":"EARTH","BSTAR":"0.00000493810000","REF_FRAME":"TEME","FILE":"3911388","MEAN_MOTION":"15.08838986","NORAD_CAT_ID":"53434","EPOCH":"2023-05-18T19:15:52.333056","COUNTRY_CODE":"US","ECCENTRICITY":"0.00010430","APOAPSIS":"540.470","ARG_OF_PERICENTER":"89.7660","LAUNCH_DATE":"2022-08-10","TLE_LINE2":"2 53434  53.2178  29.2275 0001043  89.7660 270.3452 15.08838986 43925","TLE_LINE1":"1 53434U 22097AY  23138.80268904 -.00000209  00000-0  49381-5 0  9995","MEAN_ELEMENT_THEORY":"SGP4","GP_ID":"232116131","PERIOD":"95.438","RA_OF_ASC_NODE":"29.2275","SITE":"AFETR","EPHEMERIS_TYPE":"0"},{"TLE_LINE2":"2 53435  53.2171  29.2719 0001151  97.7696 262.3427 15.08835672 43898","TLE_LINE1":"1 53435U 22097AZ  23138.81005765  .00000752  00000-0  65349-4 0  9994","GP_ID":"232115380","MEAN_ELEMENT_THEORY":"SGP4","RA_OF_ASC_NODE":"29.2719","PERIOD":"95.438","EPHEMERIS_TYPE":"0","SITE":"AFETR","ARG_OF_PERICENTER":"97.7696","APOAPSIS":"540.555","LAUNCH_DATE":"2022-08-10","MEAN_MOTION":"15.08835672","FILE":"3911388","EPOCH":"2023-05-18T19:26:28.980960","NORAD_CAT_ID":"53435","ECCENTRICITY":"0.00011510","COUNTRY_CODE":"US","DECAY_DATE":null,"PERIAPSIS":"538.962","CLASSIFICATION_TYPE":"U","MEAN_MOTION_DDOT":"0.0000000000000","BSTAR":"0.00006534900000","REF_FRAME":"TEME","CENTER_NAME":"EARTH","MEAN_MOTION_DOT":"0.00000752","MEAN_ANOMALY":"262.3427","OBJECT_ID":"2022-097AZ","REV_AT_EPOCH":"4389","INCLINATION":"53.2171","ELEMENT_SET_NO":"999","TIME_SYSTEM":"UTC","SEMIMAJOR_AXIS":"6917.894","OBJECT_TYPE":"PAYLOAD","OBJECT_NAME":"STARLINK-4542","RCS_SIZE":"LARGE"},{"ELEMENT_SET_NO":"999","INCLINATION":"53.2173","TIME_SYSTEM":"UTC","RCS_SIZE":"LARGE","OBJECT_TYPE":"PAYLOAD","SEMIMAJOR_AXIS":"6917.881","OBJECT_NAME":"STARLINK-4527","MEAN_MOTION_DOT":"0.00000908","MEAN_ANOMALY":"272.2934","OBJECT_ID":"2022-097BA","REV_AT_EPOCH":"4381","ECCENTRICITY":"0.00011030","COUNTRY_CODE":"US","FILE":"3911221","MEAN_MOTION":"15.08839713","NORAD_CAT_ID":"53436","EPOCH":"2023-05-18T03:16:42.007584","MEAN_MOTION_DDOT":"0.0000000000000","CLASSIFICATION_TYPE":"U","CENTER_NAME":"EARTH","BSTAR":"0.00007515000000","REF_FRAME":"TEME","PERIAPSIS":"538.983","DECAY_DATE":null,"PERIOD":"95.438","RA_OF_ASC_NODE":"32.1783","SITE":"AFETR","EPHEMERIS_TYPE":"0","TLE_LINE2":"2 53436  53.2173  32.1783 0001103  87.8184 272.2934 15.08839713 43819","TLE_LINE1":"1 53436U 22097BA  23138.13659731  .00000908  00000-0  75150-4 0  9992","MEAN_ELEMENT_THEORY":"SGP4","GP_ID":"232086404","LAUNCH_DATE":"2022-08-10","APOAPSIS":"540.509","ARG_OF_PERICENTER":"87.8184"}];
